OBJECT_NAME,OBJECT_ID,EPOCH,MEAN_MOTION,ECCENTRICITY,INCLINATION,RA_OF_ASC_NODE,ARG_OF_PERICENTER,MEAN_ANOMALY,EPHEMERIS_TYPE,CLASSIFICATION_TYPE,NORAD_CAT_ID,ELEMENT_SET_NO,REV_AT_EPOCH,BSTAR,MEAN_MOTION_DOT,MEAN_MOTION_DDOT
IONOSFERA-M 2,2024-199B,2026-06-15T06:12:54.635616,14.22757178,.00011281,98.7174,39.3621,40.1314,319.9947,0,U,61736,999,13055,.41730312E-4,.5E-6,0
PRSC-EO1,2025-012A,2026-06-15T06:42:33.338592,15.17748554,.00043176,97.4230,238.7768,259.0551,101.0197,0,U,62725,999,7790,.30911155E-3,.6175E-4,0
BIOMASS,2025-090A,2026-06-15T07:53:40.515360,14.67535883,.00012362,98.0739,353.6728,91.0663,269.0683,0,U,63772,999,6041,.1588607E-3,.853E-5,0
GOSAT-GW (IBUKI GW),2025-141A,2026-06-15T06:44:44.274336,14.67553721,.00014252,98.0569,103.6291,83.1469,276.9898,0,U,64694,999,5156,.19493542E-3,.1058E-4,0
IONOSFERA-M 3,2025-155A,2026-06-15T06:35:54.421152,14.21486150,.00008897,98.6024,128.2281,160.6737,199.4475,0,U,64876,999,4613,.34268931E-4,.32E-6,0
IONOSFERA-M 4,2025-155B,2026-06-15T07:26:05.008416,14.21488339,.00009835,98.6030,128.1794,120.3809,239.7466,0,U,64877,999,4613,.29329436E-4,.21E-6,0
MICROCARB,2025-156A,2026-06-15T04:17:35.633760,14.72323579,.0014986,97.9832,243.3520,279.2071,80.7441,0,U,64899,999,4767,.76202854E-4,.433E-5,0
CO3D 3,2025-156B,2026-06-15T06:41:25.644192,15.20208655,.0001369,97.4334,244.9989,130.6735,229.4619,0,U,64900,999,4924,.1686489E-3,.3586E-4,0
CO3D 4,2025-156C,2026-06-15T06:41:38.593824,15.20211014,.00002819,97.4332,244.9991,11.8371,348.2871,0,U,64901,999,4924,.14657946E-4,.25E-5,0
CO3D 2,2025-156D,2026-06-15T05:53:38.131872,15.20205067,.00014939,97.4334,244.8652,109.1169,251.0228,0,U,64902,999,4923,.18117434E-3,.3857E-4,0
CO3D 1,2025-156E,2026-06-15T05:53:51.223200,15.20204363,.00013103,97.4333,244.8653,114.9420,245.1952,0,U,64903,999,4923,.21540805E-3,.4599E-4,0
PRSC-S1,2025-164A,2026-06-15T06:36:02.383776,15.06443282,.00069172,41.1315,298.5816,332.0142,28.0299,0,U,65055,999,4814,.28527642E-3,.4108E-4,0
SENTINEL-6B,2025-264A,2026-06-15T06:57:43.346592,12.80930005,.00080203,66.0393,139.1188,269.2064,90.8032,0,U,66514,999,2692,-.21010559E-4,-.66E-6,0
CAS500-3,2025-274F,2026-06-15T06:22:22.085760,14.88316884,.00066946,97.7447,94.3602,115.0377,245.1535,0,U,66655,999,2986,.12066586E-3,.1063E-4,0
CSG-3,2026-001A,2026-06-15T02:32:56.499072,14.82152480,.00013446,97.8885,349.7381,94.0525,266.0842,0,U,67304,999,2415,.40138515E-4,.267E-5,0
PRSC-E03,2026-092A,2026-06-15T06:23:23.860032,15.06659422,.00040858,38.0005,101.0073,349.2469,10.8205,0,U,68835,999,766,.15259529E-3,.2198E-4,0
CAS500-2,2026-100AK,2026-06-15T07:25:50.059488,15.20570859,.00108708,97.4083,64.1975,40.7302,319.4744,0,U,69013,999,652,.23649789E-3,.5118E-4,0
