IONOSFERA-M 2           
1 61736U 24199B   26166.25896569  .00000050  00000+0  41730-4 0  9992
2 61736  98.7174  39.3621 0001128  40.1314 319.9947 14.22757178130550
PRSC-EO1                
1 62725U 25012A   26166.27955253  .00006175  00000+0  30911-3 0  9996
2 62725  97.4230 238.7768 0004317 259.0551 101.0197 15.17748554 77901
BIOMASS                 
1 63772U 25090A   26166.32894115  .00000853  00000+0  15886-3 0  9991
2 63772  98.0739 353.6728 0001236  91.0663 269.0683 14.67535883 60419
GOSAT-GW (IBUKI GW)     
1 64694U 25141A   26166.28106799  .00001058  00000+0  19494-3 0  9998
2 64694  98.0569 103.6291 0001425  83.1469 276.9898 14.67553721 51560
IONOSFERA-M 3           
1 64876U 25155A   26166.27493543  .00000032  00000+0  34269-4 0  9999
2 64876  98.6024 128.2281 0000889 160.6737 199.4475 14.21486150 46136
IONOSFERA-M 4           
1 64877U 25155B   26166.30978019  .00000021  00000+0  29329-4 0  9999
2 64877  98.6030 128.1794 0000983 120.3809 239.7466 14.21488339 46139
MICROCARB               
1 64899U 25156A   26166.17888465  .00000433  00000+0  76203-4 0  9994
2 64899  97.9832 243.3520 0014986 279.2071  80.7441 14.72323579 47672
CO3D 3                  
1 64900U 25156B   26166.27876903  .00003586  00000+0  16865-3 0  9991
2 64900  97.4334 244.9989 0001369 130.6735 229.4619 15.20208655 49246
CO3D 4                  
1 64901U 25156C   26166.27891891  .00000250  00000+0  14658-4 0  9999
2 64901  97.4332 244.9991 0000281  11.8371 348.2871 15.20211014 49249
CO3D 2                  
1 64902U 25156D   26166.24558023  .00003857  00000+0  18117-3 0  9993
2 64902  97.4334 244.8652 0001493 109.1169 251.0228 15.20205067 49234
CO3D 1                  
1 64903U 25156E   26166.24573175  .00004599  00000+0  21541-3 0  9998
2 64903  97.4333 244.8653 0001310 114.9420 245.1952 15.20204363 49233
PRSC-S1                 
1 65055U 25164A   26166.27502759  .00004108  00000+0  28528-3 0  9997
2 65055  41.1315 298.5816 0006917 332.0142  28.0299 15.06443282 48147
SENTINEL-6B             
1 66514U 25264A   26166.29008503 -.00000066  00000+0 -21011-4 0  9991
2 66514  66.0393 139.1188 0008020 269.2064  90.8032 12.80930005 26920
CAS500-3                
1 66655U 25274F   26166.26553340  .00001063  00000+0  12067-3 0  9995
2 66655  97.7447  94.3602 0006694 115.0377 245.1535 14.88316884 29862
CSG-3                   
1 67304U 26001A   26166.10620948  .00000267  00000+0  40139-4 0  9995
2 67304  97.8885 349.7381 0001344  94.0525 266.0842 14.82152480 24154
PRSC-E03                
1 68835U 26092A   26166.26624838  .00002198  00000+0  15260-3 0  9995
2 68835  38.0005 101.0073 0004085 349.2469  10.8205 15.06659422  7669
CAS500-2                
1 69013U 26100AK  26166.30960717  .00005118  00000+0  23650-3 0  9995
2 69013  97.4083  64.1975 0010870  40.7302 319.4744 15.20570859  6523
